{"fetched_at":"2026-07-19T17:31:32.913Z","source":"https://celestrak.org/NORAD/elements/gp.php?NAME=GLOBAL&FORMAT=JSON","constellation":"blacksky-gen3","records":[{"OBJECT_NAME":"GLOBAL-31","OBJECT_ID":"2025-033B","EPOCH":"2026-07-19T05:18:06.453792","CLASSIFICATION_TYPE":"U","MEAN_MOTION":15.383598,"ECCENTRICITY":0.00124242,"INCLINATION":58.9974,"RA_OF_ASC_NODE":186.7137,"ARG_OF_PERICENTER":58.6876,"MEAN_ANOMALY":301.5415,"EPHEMERIS_TYPE":0,"NORAD_CAT_ID":63027,"ELEMENT_SET_NO":999,"REV_AT_EPOCH":7925,"BSTAR":0.00015413601,"MEAN_MOTION_DOT":0.00005557,"MEAN_MOTION_DDOT":0},{"OBJECT_NAME":"GLOBAL-32","OBJECT_ID":"2025-118B","EPOCH":"2026-07-18T18:25:14.985120","CLASSIFICATION_TYPE":"U","MEAN_MOTION":15.39344303,"ECCENTRICITY":0.00167884,"INCLINATION":58.9943,"RA_OF_ASC_NODE":4.7277,"ARG_OF_PERICENTER":63.1887,"MEAN_ANOMALY":297.0904,"EPHEMERIS_TYPE":0,"NORAD_CAT_ID":64231,"ELEMENT_SET_NO":999,"REV_AT_EPOCH":6310,"BSTAR":0.00017880648,"MEAN_MOTION_DOT":0.00006737,"MEAN_MOTION_DDOT":0},{"OBJECT_NAME":"GLOBAL-33","OBJECT_ID":"2025-267A","EPOCH":"2026-07-19T03:22:15.230784","CLASSIFICATION_TYPE":"U","MEAN_MOTION":15.37274239,"ECCENTRICITY":0.00081303,"INCLINATION":42.018,"RA_OF_ASC_NODE":230.299,"ARG_OF_PERICENTER":124.0086,"MEAN_ANOMALY":236.1527,"EPHEMERIS_TYPE":0,"NORAD_CAT_ID":66554,"ELEMENT_SET_NO":999,"REV_AT_EPOCH":3696,"BSTAR":0.00015237238,"MEAN_MOTION_DOT":0.00005429,"MEAN_MOTION_DDOT":0},{"OBJECT_NAME":"GLOBAL-34","OBJECT_ID":"2026-043A","EPOCH":"2026-07-18T15:02:26.049696","CLASSIFICATION_TYPE":"U","MEAN_MOTION":15.33147221,"ECCENTRICITY":0.0002278,"INCLINATION":42.0218,"RA_OF_ASC_NODE":38.9158,"ARG_OF_PERICENTER":174.1262,"MEAN_ANOMALY":185.9603,"EPHEMERIS_TYPE":0,"NORAD_CAT_ID":68098,"ELEMENT_SET_NO":999,"REV_AT_EPOCH":2065,"BSTAR":0.00017734,"MEAN_MOTION_DOT":0.00005552,"MEAN_MOTION_DDOT":0}]}
