GLOBAL-31               
1 63027U 25033B   26200.22090803  .00005557  00000+0  15414-3 0  9994
2 63027  58.9974 186.7137 0012424  58.6876 301.5415 15.38359800 79252
GLOBAL-32               
1 64231U 25118B   26199.76753455  .00006737  00000+0  17881-3 0  9992
2 64231  58.9943   4.7277 0016788  63.1887 297.0904 15.39344303 63102
GLOBAL-33               
1 66554U 25267A   26200.14045406  .00005429  00000+0  15237-3 0  9992
2 66554  42.0180 230.2990 0008130 124.0086 236.1527 15.37274239 36964
GLOBAL-34               
1 68098U 26043A   26199.62669039  .00005552  00000+0  17734-3 0  9995
2 68098  42.0218  38.9158 0002278 174.1262 185.9603 15.33147221 20650
